{
  "type": "FeatureCollection",
  "features": [
    {
      "type": "Feature",
      "properties": {
        "norad_id": 66909,
        "name": "SILVERSAT",
        "group": "stations",
        "lat": 47.257808665374355,
        "lon": 163.3144230260648,
        "alt_km": 405.04333243337715,
        "timestamp": "2025-12-20T09:36:00.383338+00:00",
        "meta_object_name": "SILVERSAT",
        "meta_object_id": "1998-067XV",
        "meta_epoch": "2025-12-19T13:13:09.424128",
        "meta_mean_motion": 15.5251652,
        "meta_eccentricity": 0.0003839,
        "meta_inclination": 51.6306,
        "meta_ra_of_asc_node": 108.5226,
        "meta_arg_of_pericenter": 268.696,
        "meta_mean_anomaly": 91.359,
        "meta_ephemeris_type": 0,
        "meta_classification_type": "U",
        "meta_norad_cat_id": 66909,
        "meta_element_set_no": 999,
        "meta_rev_at_epoch": 267,
        "meta_bstar": 0.00079912,
        "meta_mean_motion_dot": 0.00049748,
        "meta_mean_motion_ddot": 0,
        "tle_line1": "1 66909U 98067XV  25353.55080352  .00049748  00000+0  79912-3 0  9998",
        "tle_line2": "2 66909  51.6306 108.5226 0003839 268.6960  91.3590 15.52516520  2671"
      },
      "geometry": {
        "type": "Point",
        "coordinates": [
          163.3144230260648,
          47.257808665374355
        ]
      }
    },
    {
      "type": "Feature",
      "properties": {
        "norad_id": 66910,
        "name": "1998-067XW",
        "group": "stations",
        "lat": 50.42315847722394,
        "lon": 177.71181516064522,
        "alt_km": 405.084837896341,
        "timestamp": "2025-12-20T09:36:00.383348+00:00",
        "meta_object_name": "1998-067XW",
        "meta_object_id": "1998-067XW",
        "meta_epoch": "2025-12-19T13:10:35.176800",
        "meta_mean_motion": 15.525263,
        "meta_eccentricity": 0.0004382,
        "meta_inclination": 51.6305,
        "meta_ra_of_asc_node": 108.5102,
        "meta_arg_of_pericenter": 243.3936,
        "meta_mean_anomaly": 116.6605,
        "meta_ephemeris_type": 0,
        "meta_classification_type": "U",
        "meta_norad_cat_id": 66910,
        "meta_element_set_no": 999,
        "meta_rev_at_epoch": 267,
        "meta_bstar": 0.00069409,
        "meta_mean_motion_dot": 0.0004313,
        "meta_mean_motion_ddot": 0,
        "tle_line1": "1 66910U 98067XW  25353.54901825  .00043130  00000+0  69409-3 0  9995",
        "tle_line2": "2 66910  51.6305 108.5102 0004382 243.3936 116.6605 15.52526300  2677"
      },
      "geometry": {
        "type": "Point",
        "coordinates": [
          177.71181516064522,
          50.42315847722394
        ]
      }
    },
    {
      "type": "Feature",
      "properties": {
        "norad_id": 66911,
        "name": "1998-067XX",
        "group": "stations",
        "lat": 51.50227999778651,
        "lon": -160.71095974328824,
        "alt_km": 403.3550102711015,
        "timestamp": "2025-12-20T09:36:00.383358+00:00",
        "meta_object_name": "1998-067XX",
        "meta_object_id": "1998-067XX",
        "meta_epoch": "2025-12-19T19:18:04.960512",
        "meta_mean_motion": 15.52964022,
        "meta_eccentricity": 0.00039341,
        "meta_inclination": 51.6304,
        "meta_ra_of_asc_node": 107.215,
        "meta_arg_of_pericenter": 254.2011,
        "meta_mean_anomaly": 105.8545,
        "meta_ephemeris_type": 0,
        "meta_classification_type": "U",
        "meta_norad_cat_id": 66911,
        "meta_element_set_no": 999,
        "meta_rev_at_epoch": 270,
        "meta_bstar": 0.00082358587,
        "meta_mean_motion_dot": 0.00052143,
        "meta_mean_motion_ddot": 0,
        "tle_line1": "1 66911U 98067XX  25353.80422408  .00052143  00000+0  82359-3 0  9993",
        "tle_line2": "2 66911  51.6304 107.2150 0003934 254.2011 105.8545 15.52964022  2707"
      },
      "geometry": {
        "type": "Point",
        "coordinates": [
          -160.71095974328824,
          51.50227999778651
        ]
      }
    },
    {
      "type": "Feature",
      "properties": {
        "norad_id": 66912,
        "name": "1998-067XY",
        "group": "stations",
        "lat": 32.048316530931444,
        "lon": 134.08777102252577,
        "alt_km": 409.2616079815343,
        "timestamp": "2025-12-20T09:36:00.383368+00:00",
        "meta_object_name": "1998-067XY",
        "meta_object_id": "1998-067XY",
        "meta_epoch": "2025-12-19T14:52:14.043072",
        "meta_mean_motion": 15.51780846,
        "meta_eccentricity": 0.0004012,
        "meta_inclination": 51.6307,
        "meta_ra_of_asc_node": 108.231,
        "meta_arg_of_pericenter": 260.881,
        "meta_mean_anomaly": 99.1725,
        "meta_ephemeris_type": 0,
        "meta_classification_type": "U",
        "meta_norad_cat_id": 66912,
        "meta_element_set_no": 999,
        "meta_rev_at_epoch": 267,
        "meta_bstar": 0.00063264,
        "meta_mean_motion_dot": 0.00038197,
        "meta_mean_motion_ddot": 0,
        "tle_line1": "1 66912U 98067XY  25353.61960698  .00038197  00000+0  63264-3 0  9998",
        "tle_line2": "2 66912  51.6307 108.2310 0004012 260.8810  99.1725 15.51780846  2678"
      },
      "geometry": {
        "type": "Point",
        "coordinates": [
          134.08777102252577,
          32.048316530931444
        ]
      }
    }
  ]
}